{
  "type": "FeatureCollection",
  "features": [
    {
      "type": "Feature",
      "properties": {
        "norad_id": 66174,
        "name": "HTV-X1",
        "group": "stations",
        "lat": -32.14595359742629,
        "lon": -78.73741657948557,
        "alt_km": 420.74314966602014,
        "timestamp": "2025-12-27T02:10:14.942373+00:00",
        "meta_object_name": "HTV-X1",
        "meta_object_id": "2025-241A",
        "meta_epoch": "2025-12-26T12:50:01.193856",
        "meta_mean_motion": 15.49844261,
        "meta_eccentricity": 0.00032307,
        "meta_inclination": 51.632,
        "meta_ra_of_asc_node": 74.1581,
        "meta_arg_of_pericenter": 305.5588,
        "meta_mean_anomaly": 54.5099,
        "meta_ephemeris_type": 0,
        "meta_classification_type": "U",
        "meta_norad_cat_id": 66174,
        "meta_element_set_no": 999,
        "meta_rev_at_epoch": 51,
        "meta_bstar": 0.00025381537,
        "meta_mean_motion_dot": 0.00013978,
        "meta_mean_motion_ddot": 0,
        "tle_line1": "1 66174U 25241A   25360.53473604  .00013978  00000+0  25382-3 0  9996",
        "tle_line2": "2 66174  51.6320  74.1581 0003230 305.5588  54.5099 15.49844261   513"
      },
      "geometry": {
        "type": "Point",
        "coordinates": [
          -78.73741657948557,
          -32.14595359742629
        ]
      }
    },
    {
      "type": "Feature",
      "properties": {
        "norad_id": 66515,
        "name": "SZ-21 MODULE",
        "group": "stations",
        "lat": -39.94913830606446,
        "lon": 179.92768341152072,
        "alt_km": 381.1158994151274,
        "timestamp": "2025-12-27T02:10:14.942383+00:00",
        "meta_object_name": "SZ-21 MODULE",
        "meta_object_id": "2025-246C",
        "meta_epoch": "2025-12-25T04:36:53.601984",
        "meta_mean_motion": 15.63137537,
        "meta_eccentricity": 0.0004589,
        "meta_inclination": 41.4767,
        "meta_ra_of_asc_node": 300.0489,
        "meta_arg_of_pericenter": 327.9877,
        "meta_mean_anomaly": 32.0683,
        "meta_ephemeris_type": 0,
        "meta_classification_type": "U",
        "meta_norad_cat_id": 66515,
        "meta_element_set_no": 999,
        "meta_rev_at_epoch": 639,
        "meta_bstar": 0.00031272,
        "meta_mean_motion_dot": 0.00029146,
        "meta_mean_motion_ddot": 0,
        "tle_line1": "1 66515U 25246C   25359.19228706  .00029146  00000+0  31272-3 0  9990",
        "tle_line2": "2 66515  41.4767 300.0489 0004589 327.9877  32.0683 15.63137537  6398"
      },
      "geometry": {
        "type": "Point",
        "coordinates": [
          179.92768341152072,
          -39.94913830606446
        ]
      }
    },
    {
      "type": "Feature",
      "properties": {
        "norad_id": 66645,
        "name": "SHENZHOU-22",
        "group": "stations",
        "lat": 5.030500811225066,
        "lon": 103.8247289786947,
        "alt_km": 381.80281215732975,
        "timestamp": "2025-12-27T02:10:14.942394+00:00",
        "meta_object_name": "SHENZHOU-22",
        "meta_object_id": "2025-272A",
        "meta_epoch": "2025-12-26T05:27:30.670848",
        "meta_mean_motion": 15.59708409,
        "meta_eccentricity": 0.00085179,
        "meta_inclination": 41.468,
        "meta_ra_of_asc_node": 294.7909,
        "meta_arg_of_pericenter": 149.5046,
        "meta_mean_anomaly": 210.6289,
        "meta_ephemeris_type": 0,
        "meta_classification_type": "U",
        "meta_norad_cat_id": 66645,
        "meta_element_set_no": 999,
        "meta_rev_at_epoch": 26598,
        "meta_bstar": 0.00023601706,
        "meta_mean_motion_dot": 0.00019151,
        "meta_mean_motion_ddot": 0,
        "tle_line1": "1 66645U 25272A   25360.22743832  .00019151  00000+0  23602-3 0  9994",
        "tle_line2": "2 66645  41.4680 294.7909 0008517 149.5046 210.6289 15.59708409265988"
      },
      "geometry": {
        "type": "Point",
        "coordinates": [
          103.8247289786947,
          5.030500811225066
        ]
      }
    },
    {
      "type": "Feature",
      "properties": {
        "norad_id": 66664,
        "name": "SOYUZ-MS 28",
        "group": "stations",
        "lat": -32.14598512353032,
        "lon": -78.73737645862647,
        "alt_km": 420.7430893514893,
        "timestamp": "2025-12-27T02:10:14.942404+00:00",
        "meta_object_name": "SOYUZ-MS 28",
        "meta_object_id": "2025-275A",
        "meta_epoch": "2025-12-26T12:50:01.192992",
        "meta_mean_motion": 15.49844261,
        "meta_eccentricity": 0.0003231,
        "meta_inclination": 51.632,
        "meta_ra_of_asc_node": 74.1581,
        "meta_arg_of_pericenter": 305.5588,
        "meta_mean_anomaly": 54.5099,
        "meta_ephemeris_type": 0,
        "meta_classification_type": "U",
        "meta_norad_cat_id": 66664,
        "meta_element_set_no": 999,
        "meta_rev_at_epoch": 458,
        "meta_bstar": 0.00025382,
        "meta_mean_motion_dot": 0.00013978,
        "meta_mean_motion_ddot": 0,
        "tle_line1": "1 66664U 25275A   25360.53473603  .00013978  00000+0  25382-3 0  9996",
        "tle_line2": "2 66664  51.6320  74.1581 0003231 305.5588  54.5099 15.49844261  4589"
      },
      "geometry": {
        "type": "Point",
        "coordinates": [
          -78.73737645862647,
          -32.14598512353032
        ]
      }
    },
    {
      "type": "Feature",
      "properties": {
        "norad_id": 66906,
        "name": "1998-067XS",
        "group": "stations",
        "lat": -31.96217859884939,
        "lon": 41.58318438056598,
        "alt_km": 415.20793200406933,
        "timestamp": "2025-12-27T02:10:14.942429+00:00",
        "meta_object_name": "1998-067XS",
        "meta_object_id": "1998-067XS",
        "meta_epoch": "2025-12-26T15:31:52.020768",
        "meta_mean_motion": 15.5132596,
        "meta_eccentricity": 0.0002673,
        "meta_inclination": 51.6319,
        "meta_ra_of_asc_node": 73.4106,
        "meta_arg_of_pericenter": 274.6448,
        "meta_mean_anomaly": 85.4236,
        "meta_ephemeris_type": 0,
        "meta_classification_type": "U",
        "meta_norad_cat_id": 66906,
        "meta_element_set_no": 999,
        "meta_rev_at_epoch": 377,
        "meta_bstar": 0.00048785,
        "meta_mean_motion_dot": 0.0002883,
        "meta_mean_motion_ddot": 0,
        "tle_line1": "1 66906U 98067XS  25360.64712987  .00028830  00000+0  48785-3 0  9992",
        "tle_line2": "2 66906  51.6319  73.4106 0002673 274.6448  85.4236 15.51325960  3770"
      },
      "geometry": {
        "type": "Point",
        "coordinates": [
          41.58318438056598,
          -31.96217859884939
        ]
      }
    },
    {
      "type": "Feature",
      "properties": {
        "norad_id": 66907,
        "name": "1998-067XT",
        "group": "stations",
        "lat": 32.99473254523472,
        "lon": 101.9854160612565,
        "alt_km": 403.08640527579246,
        "timestamp": "2025-12-27T02:10:14.942441+00:00",
        "meta_object_name": "1998-067XT",
        "meta_object_id": "1998-067XT",
        "meta_epoch": "2025-12-26T12:05:04.890048",
        "meta_mean_motion": 15.53165234,
        "meta_eccentricity": 0.0003816,
        "meta_inclination": 51.6314,
        "meta_ra_of_asc_node": 73.9516,
        "meta_arg_of_pericenter": 309.8325,
        "meta_mean_anomaly": 50.2329,
        "meta_ephemeris_type": 0,
        "meta_classification_type": "U",
        "meta_norad_cat_id": 66907,
        "meta_element_set_no": 999,
        "meta_rev_at_epoch": 375,
        "meta_bstar": 0.00096732,
        "meta_mean_motion_dot": 0.00061851,
        "meta_mean_motion_ddot": 0,
        "tle_line1": "1 66907U 98067XT  25360.50352882  .00061851  00000+0  96732-3 0  9997",
        "tle_line2": "2 66907  51.6314  73.9516 0003816 309.8325  50.2329 15.53165234  3750"
      },
      "geometry": {
        "type": "Point",
        "coordinates": [
          101.9854160612565,
          32.99473254523472
        ]
      }
    },
    {
      "type": "Feature",
      "properties": {
        "norad_id": 66908,
        "name": "1998-067XU",
        "group": "stations",
        "lat": 37.243079370213906,
        "lon": 108.04900414644153,
        "alt_km": 402.58272485288217,
        "timestamp": "2025-12-27T02:10:14.942452+00:00",
        "meta_object_name": "1998-067XU",
        "meta_object_id": "1998-067XU",
        "meta_epoch": "2025-12-26T18:14:01.548960",
        "meta_mean_motion": 15.53257933,
        "meta_eccentricity": 0.000387,
        "meta_inclination": 51.6313,
        "meta_ra_of_asc_node": 72.6614,
        "meta_arg_of_pericenter": 309.5614,
        "meta_mean_anomaly": 50.5034,
        "meta_ephemeris_type": 0,
        "meta_classification_type": "U",
        "meta_norad_cat_id": 66908,
        "meta_element_set_no": 999,
        "meta_rev_at_epoch": 379,
        "meta_bstar": 0.00095802,
        "meta_mean_motion_dot": 0.00061456,
        "meta_mean_motion_ddot": 0,
        "tle_line1": "1 66908U 98067XU  25360.75974015  .00061456  00000+0  95802-3 0  9991",
        "tle_line2": "2 66908  51.6313  72.6614 0003870 309.5614  50.5034 15.53257933  3791"
      },
      "geometry": {
        "type": "Point",
        "coordinates": [
          108.04900414644153,
          37.243079370213906
        ]
      }
    }
  ]
}